start=new Date('2023-06-02T00:00:00.000Z').valueOf();
sats=[{"BSTAR":"0.00055810000000","PERIAPSIS":"546.489","MEAN_ANOMALY":"267.8399","TLE_LINE2":"2 48667  53.0547 335.4309 0000946  92.2699 267.8399 15.06422794111298","ECCENTRICITY":"0.00009460","NORAD_CAT_ID":"48667","DECAY_DATE":null,"RCS_SIZE":"LARGE","MEAN_MOTION_DOT":"0.00008046","REV_AT_EPOCH":"11129","SEMIMAJOR_AXIS":"6925.279","GP_ID":"232996721","EPOCH":"2023-06-01T12:25:48.021024","MEAN_MOTION":"15.06422794","RA_OF_ASC_NODE":"335.4309","CENTER_NAME":"EARTH","OBJECT_ID":"2021-044AF","MEAN_MOTION_DDOT":"0.0000000000000","TIME_SYSTEM":"UTC","FILE":"3922718","ELEMENT_SET_NO":"999","ARG_OF_PERICENTER":"92.2699","PERIOD":"95.591","COUNTRY_CODE":"US","OBJECT_NAME":"STARLINK-2735","CLASSIFICATION_TYPE":"U","APOAPSIS":"547.799","SITE":"AFETR","LAUNCH_DATE":"2021-05-26","INCLINATION":"53.0547","REF_FRAME":"TEME","OBJECT_TYPE":"PAYLOAD","MEAN_ELEMENT_THEORY":"SGP4","EPHEMERIS_TYPE":"0","TLE_LINE1":"1 48667U 21044AF  23152.51791691  .00008046  00000-0  55810-3 0  9994"},{"OBJECT_ID":"2021-044AG","MEAN_MOTION":"15.06426183","EPOCH":"2023-06-01T12:20:29.754528","RA_OF_ASC_NODE":"335.4541","CENTER_NAME":"EARTH","GP_ID":"232996972","MEAN_MOTION_DOT":"0.00016775","REV_AT_EPOCH":"11129","SEMIMAJOR_AXIS":"6925.268","RCS_SIZE":"LARGE","DECAY_DATE":null,"TLE_LINE2":"2 48668  53.0534 335.4541 0000936  78.5400 281.5694 15.06426183111296","ECCENTRICITY":"0.00009360","NORAD_CAT_ID":"48668","PERIAPSIS":"546.485","MEAN_ANOMALY":"281.5694","BSTAR":"0.00114160000000","REF_FRAME":"TEME","MEAN_ELEMENT_THEORY":"SGP4","OBJECT_TYPE":"PAYLOAD","EPHEMERIS_TYPE":"0","TLE_LINE1":"1 48668U 21044AG  23152.51423327  .00016775  00000-0  11416-2 0  9994","LAUNCH_DATE":"2021-05-26","INCLINATION":"53.0534","APOAPSIS":"547.782","SITE":"AFETR","OBJECT_NAME":"STARLINK-2738","COUNTRY_CODE":"US","CLASSIFICATION_TYPE":"U","TIME_SYSTEM":"UTC","FILE":"3922718","ELEMENT_SET_NO":"999","ARG_OF_PERICENTER":"78.5400","PERIOD":"95.590","MEAN_MOTION_DDOT":"0.0000000000000"},{"MEAN_ANOMALY":"267.0992","PERIAPSIS":"546.503","BSTAR":"0.00108920000000","DECAY_DATE":null,"RCS_SIZE":"LARGE","ECCENTRICITY":"0.00009290","NORAD_CAT_ID":"48669","TLE_LINE2":"2 48669  53.0541 335.4686 0000929  93.0104 267.0992 15.06422059111287","GP_ID":"232995720","REV_AT_EPOCH":"11128","SEMIMAJOR_AXIS":"6925.281","MEAN_MOTION_DOT":"0.00015989","OBJECT_ID":"2021-044AH","CENTER_NAME":"EARTH","MEAN_MOTION":"15.06422059","EPOCH":"2023-06-01T12:15:11.597760","RA_OF_ASC_NODE":"335.4686","ARG_OF_PERICENTER":"93.0104","PERIOD":"95.591","TIME_SYSTEM":"UTC","FILE":"3922718","ELEMENT_SET_NO":"999","MEAN_MOTION_DDOT":"0.0000000000000","COUNTRY_CODE":"US","CLASSIFICATION_TYPE":"U","OBJECT_NAME":"STARLINK-2707","LAUNCH_DATE":"2021-05-26","INCLINATION":"53.0541","SITE":"AFETR","APOAPSIS":"547.789","OBJECT_TYPE":"PAYLOAD","MEAN_ELEMENT_THEORY":"SGP4","TLE_LINE1":"1 48669U 21044AH  23152.51055090  .00015989  00000-0  10892-2 0  9996","EPHEMERIS_TYPE":"0","REF_FRAME":"TEME"},{"BSTAR":"0.00053213000000","PERIAPSIS":"546.383","MEAN_ANOMALY":"278.6335","TLE_LINE2":"2 48670  53.0544 335.4844 0001113  81.4780 278.6335 15.06419373111289","ECCENTRICITY":"0.00011130","NORAD_CAT_ID":"48670","DECAY_DATE":null,"RCS_SIZE":"LARGE","MEAN_MOTION_DOT":"0.00007658","REV_AT_EPOCH":"11128","SEMIMAJOR_AXIS":"6925.289","GP_ID":"232995970","MEAN_MOTION":"15.06419373","EPOCH":"2023-06-01T12:09:53.263008","RA_OF_ASC_NODE":"335.4844","CENTER_NAME":"EARTH","OBJECT_ID":"2021-044AJ","MEAN_MOTION_DDOT":"0.0000000000000","TIME_SYSTEM":"UTC","ELEMENT_SET_NO":"999","FILE":"3922718","ARG_OF_PERICENTER":"81.4780","PERIOD":"95.591","OBJECT_NAME":"STARLINK-2763","COUNTRY_CODE":"US","CLASSIFICATION_TYPE":"U","APOAPSIS":"547.925","SITE":"AFETR","LAUNCH_DATE":"2021-05-26","INCLINATION":"53.0544","REF_FRAME":"TEME","MEAN_ELEMENT_THEORY":"SGP4","OBJECT_TYPE":"PAYLOAD","TLE_LINE1":"1 48670U 21044AJ  23152.50686647  .00007658  00000-0  53213-3 0  9994","EPHEMERIS_TYPE":"0"},{"ELEMENT_SET_NO":"999","FILE":"3922718","TIME_SYSTEM":"UTC","PERIOD":"95.591","ARG_OF_PERICENTER":"79.4286","MEAN_MOTION_DDOT":"0.0000000000000","OBJECT_NAME":"STARLINK-2745","COUNTRY_CODE":"US","CLASSIFICATION_TYPE":"U","INCLINATION":"53.0538","LAUNCH_DATE":"2021-05-26","APOAPSIS":"547.973","SITE":"AFETR","REF_FRAME":"TEME","EPHEMERIS_TYPE":"0","TLE_LINE1":"1 48671U 21044AK  23152.50318374  .00017342  00000-0  11795-2 0  9993","OBJECT_TYPE":"PAYLOAD","MEAN_ELEMENT_THEORY":"SGP4","PERIAPSIS":"546.310","MEAN_ANOMALY":"280.6838","BSTAR":"0.00117950000000","DECAY_DATE":null,"RCS_SIZE":"LARGE","TLE_LINE2":"2 48671  53.0538 335.4999 0001201  79.4286 280.6838 15.06423502111280","NORAD_CAT_ID":"48671","ECCENTRICITY":"0.00012010","GP_ID":"232997221","MEAN_MOTION_DOT":"0.00017342","SEMIMAJOR_AXIS":"6925.277","REV_AT_EPOCH":"11128","OBJECT_ID":"2021-044AK","RA_OF_ASC_NODE":"335.4999","EPOCH":"2023-06-01T12:04:35.075136","MEAN_MOTION":"15.06423502","CENTER_NAME":"EARTH"},{"TIME_SYSTEM":"UTC","ELEMENT_SET_NO":"999","FILE":"3922718","ARG_OF_PERICENTER":"87.8306","PERIOD":"95.590","MEAN_MOTION_DDOT":"0.0000000000000","COUNTRY_CODE":"US","OBJECT_NAME":"STARLINK-2705","CLASSIFICATION_TYPE":"U","LAUNCH_DATE":"2021-05-26","INCLINATION":"53.0545","APOAPSIS":"547.834","SITE":"AFETR","REF_FRAME":"TEME","MEAN_ELEMENT_THEORY":"SGP4","OBJECT_TYPE":"PAYLOAD","EPHEMERIS_TYPE":"0","TLE_LINE1":"1 48672U 21044AL  23152.49948966  .00022069  00000-0  14947-2 0  9992","PERIAPSIS":"546.422","MEAN_ANOMALY":"272.2799","BSTAR":"0.00149470000000","DECAY_DATE":null,"RCS_SIZE":"LARGE","TLE_LINE2":"2 48672  53.0545 335.5166 0001020  87.8306 272.2799 15.06427951111286","ECCENTRICITY":"0.00010200","NORAD_CAT_ID":"48672","GP_ID":"232997472","MEAN_MOTION_DOT":"0.00022069","REV_AT_EPOCH":"11128","SEMIMAJOR_AXIS":"6925.263","OBJECT_ID":"2021-044AL","EPOCH":"2023-06-01T11:59:15.906624","MEAN_MOTION":"15.06427951","RA_OF_ASC_NODE":"335.5166","CENTER_NAME":"EARTH"},{"EPHEMERIS_TYPE":"0","TLE_LINE1":"1 48673U 21044AM  23152.49580333  .00013334  00000-0  91181-3 0  9994","MEAN_ELEMENT_THEORY":"SGP4","OBJECT_TYPE":"PAYLOAD","REF_FRAME":"TEME","INCLINATION":"53.0536","LAUNCH_DATE":"2021-05-26","SITE":"AFETR","APOAPSIS":"547.867","COUNTRY_CODE":"US","OBJECT_NAME":"STARLINK-2711","CLASSIFICATION_TYPE":"U","PERIOD":"95.591","ARG_OF_PERICENTER":"91.1266","ELEMENT_SET_NO":"999","FILE":"3922718","TIME_SYSTEM":"UTC","MEAN_MOTION_DDOT":"0.0000000000000","OBJECT_ID":"2021-044AM","CENTER_NAME":"EARTH","RA_OF_ASC_NODE":"335.5357","MEAN_MOTION":"15.06422305","EPOCH":"2023-06-01T11:53:57.407712","GP_ID":"232996220","SEMIMAJOR_AXIS":"6925.280","REV_AT_EPOCH":"11128","MEAN_MOTION_DOT":"0.00013334","DECAY_DATE":null,"RCS_SIZE":"LARGE","NORAD_CAT_ID":"48673","ECCENTRICITY":"0.00010420","TLE_LINE2":"2 48673  53.0536 335.5357 0001042  91.1266 268.9843 15.06422305111286","MEAN_ANOMALY":"268.9843","PERIAPSIS":"546.424","BSTAR":"0.00091181000000"},{"CENTER_NAME":"EARTH","EPOCH":"2023-06-01T14:58:22.059552","MEAN_MOTION":"15.06428130","RA_OF_ASC_NODE":"334.9470","OBJECT_ID":"2021-044AN","REV_AT_EPOCH":"11130","SEMIMAJOR_AXIS":"6925.262","MEAN_MOTION_DOT":"0.00014825","GP_ID":"232996470","ECCENTRICITY":"0.00013650","NORAD_CAT_ID":"48674","TLE_LINE2":"2 48674  53.0547 334.9470 0001365  89.6921 270.4225 15.06428130111303","DECAY_DATE":null,"RCS_SIZE":"LARGE","BSTAR":"0.00101130000000","MEAN_ANOMALY":"270.4225","PERIAPSIS":"546.182","MEAN_ELEMENT_THEORY":"SGP4","OBJECT_TYPE":"PAYLOAD","TLE_LINE1":"1 48674U 21044AN  23152.62386643  .00014825  00000-0  10113-2 0  9999","EPHEMERIS_TYPE":"0","REF_FRAME":"TEME","SITE":"AFETR","APOAPSIS":"548.073","LAUNCH_DATE":"2021-05-26","INCLINATION":"53.0547","COUNTRY_CODE":"US","CLASSIFICATION_TYPE":"U","OBJECT_NAME":"STARLINK-2712","MEAN_MOTION_DDOT":"0.0000000000000","ARG_OF_PERICENTER":"89.6921","PERIOD":"95.590","TIME_SYSTEM":"UTC","ELEMENT_SET_NO":"999","FILE":"3922718"},{"MEAN_MOTION_DOT":"0.00017289","SEMIMAJOR_AXIS":"6925.228","REV_AT_EPOCH":"11134","GP_ID":"232996722","RA_OF_ASC_NODE":"333.7772","EPOCH":"2023-06-01T21:16:34.563360","MEAN_MOTION":"15.06439285","CENTER_NAME":"EARTH","OBJECT_ID":"2021-044AP","BSTAR":"0.00117550000000","PERIAPSIS":"546.356","MEAN_ANOMALY":"278.5297","TLE_LINE2":"2 48675  53.0537 333.7772 0001065  81.5812 278.5297 15.06439285111347","NORAD_CAT_ID":"48675","ECCENTRICITY":"0.00010650","DECAY_DATE":null,"RCS_SIZE":"LARGE","APOAPSIS":"547.831","SITE":"AFETR","INCLINATION":"53.0537","LAUNCH_DATE":"2021-05-26","REF_FRAME":"TEME","TLE_LINE1":"1 48675U 21044AP  23152.88651115  .00017289  00000-0  11755-2 0  9997","EPHEMERIS_TYPE":"0","OBJECT_TYPE":"PAYLOAD","MEAN_ELEMENT_THEORY":"SGP4","MEAN_MOTION_DDOT":"0.0000000000000","ELEMENT_SET_NO":"999","FILE":"3922718","TIME_SYSTEM":"UTC","PERIOD":"95.590","ARG_OF_PERICENTER":"81.5812","CLASSIFICATION_TYPE":"U","COUNTRY_CODE":"US","OBJECT_NAME":"STARLINK-2737"},{"CENTER_NAME":"EARTH","RA_OF_ASC_NODE":"333.7978","MEAN_MOTION":"15.06431756","EPOCH":"2023-06-01T21:11:15.534816","OBJECT_ID":"2021-044AQ","SEMIMAJOR_AXIS":"6925.251","REV_AT_EPOCH":"11134","MEAN_MOTION_DOT":"0.00009132","GP_ID":"232996973","NORAD_CAT_ID":"48676","ECCENTRICITY":"0.00014130","TLE_LINE2":"2 48676  53.0539 333.7978 0001413  96.7331 263.3819 15.06431756111346","DECAY_DATE":null,"RCS_SIZE":"LARGE","BSTAR":"0.00063065000000","MEAN_ANOMALY":"263.3819","PERIAPSIS":"546.138","EPHEMERIS_TYPE":"0","TLE_LINE1":"1 48676U 21044AQ  23152.88281869  .00009132  00000-0  63065-3 0  9993","MEAN_ELEMENT_THEORY":"SGP4","OBJECT_TYPE":"PAYLOAD","REF_FRAME":"TEME","SITE":"AFETR","APOAPSIS":"548.095","INCLINATION":"53.0539","LAUNCH_DATE":"2021-05-26","COUNTRY_CODE":"US","OBJECT_NAME":"STARLINK-2746","CLASSIFICATION_TYPE":"U","MEAN_MOTION_DDOT":"0.0000000000000","PERIOD":"95.590","ARG_OF_PERICENTER":"96.7331","ELEMENT_SET_NO":"999","FILE":"3922718","TIME_SYSTEM":"UTC"}];
